NORAD_CAT_ID,OBJECT_NAME,OBJECT_TYPE,EPOCH,MEAN_MOTION,ECCENTRICITY,INCLINATION,RA_OF_ASC_NODE,ARG_OF_PERICENTER,MEAN_ANOMALY,BSTAR,MEAN_MOTION_DOT,MEAN_MOTION_DDOT,TLE_LINE0,TLE_LINE1,TLE_LINE2,SEMIMAJOR_AXIS,PERIOD,APOGEE,PERIGEE,DECAYED
50816.0,STARLINK-3342,PAYLOAD,2022-05-28 22:00:00,15.08873779,0.0002047,53.2162,247.6591,39.0674,337.2756,-0.002581,-0.00041169,0.0,0 STARLINK-3342,1 50816U 22001P   22148.91667824 -.00041169  00000-0 -25810-2 0  9996,2 50816  53.2162 247.6591 0002047  39.0674 337.2756 15.08873779 23235,6917.776999999999,95.435,541.058,538.226,0.0
50816.0,STARLINK-3342,PAYLOAD,2022-05-29 13:49:35,15.08839132,0.0002026,53.2175,244.6986,42.1342,317.9806,6.477100000000001e-05,7.43e-06,0.0,0 STARLINK-3342,1 50816U 22001P   22149.57610052  .00000743  00000-0  64771-4 0  9992,2 50816  53.2175 244.6986 0002026  42.1342 317.9806 15.08839132 22053,6917.8830000000025,95.438,541.15,538.346,0.0
50816.0,STARLINK-3342,PAYLOAD,2022-05-29 18:35:44,15.08829388,0.0002055,53.2174,243.8069,43.0651,317.0501,0.00011971,1.617e-05,0.0,0 STARLINK-3342,1 50816U 22001P   22149.77482537  .00001617  00000-0  11971-3 0  9993,2 50816  53.2174 243.8069 0002055  43.0651 317.0501 15.08829388 22088,6917.913000000001,95.438,541.1990000000002,538.356,0.0
50816.0,STARLINK-3342,PAYLOAD,2022-05-30 06:00:00,15.08796221,0.0001962,53.2159,241.6733,45.5346,17.1049,0.0018943,0.00029952,0.0,0 STARLINK-3342,1 50816U 22001P   22150.25001157  .00029952  00000-0  18943-2 0  9990,2 50816  53.2159 241.6733 0001962  45.5346  17.1049 15.08796221 23433,6918.014,95.44,541.237,538.5219999999998,0.0
50816.0,STARLINK-3342,PAYLOAD,2022-05-30 14:00:01,15.08802244,0.0002167,53.2158,240.1789,41.5562,32.6379,0.00068212,0.00010573,0.0,0 STARLINK-3342,1 50816U 22001P   22150.58334491  .00010573  00000-0  68212-3 0  9990,2 50816  53.2158 240.1789 0002167  41.5562  32.6379 15.08802244  1304,6917.996,95.44,541.36,538.362,0.0
50816.0,STARLINK-3342,PAYLOAD,2022-05-30 22:00:00,15.08828762,0.0002081,53.2156,238.6815,41.4317,44.3147,-0.0016157,-0.00025903,0.0,0 STARLINK-3342,1 50816U 22001P   22150.91667824 -.00025903  00000-0 -16157-2 0  9991,2 50816  53.2156 238.6815 0002081  41.4317  44.3147 15.08828762 23531,6917.915,95.438,541.219,538.34,0.0
50816.0,STARLINK-3342,PAYLOAD,2022-05-31 05:34:15,15.08822389,0.0001994,53.2179,237.2652,43.0117,317.1031,-4.1196e-05,-9.43e-06,0.0,0 STARLINK-3342,1 50816U 22001P   22151.23212407 -.00000943  00000-0 -41196-4 0  9990,2 50816  53.2179 237.2652 0001994  43.0117 317.1031 15.08822389 22304,6917.934,95.439,541.179,538.42,0.0
50816.0,STARLINK-3342,PAYLOAD,2022-05-31 14:00:01,15.0881867,0.0002239,53.2156,235.69,41.5594,67.3373,0.0010499,0.00016451,0.0,0 STARLINK-3342,1 50816U 22001P   22151.58334491  .00016451  00000-0  10499-2 0  9995,2 50816  53.2156 235.6900 0002239  41.5594  67.3373 15.08818670 23630,6917.946,95.439,541.36,538.262,0.0
50816.0,STARLINK-3342,PAYLOAD,2022-05-31 22:00:00,15.08850618,0.0002152,53.2155,234.1926,41.8142,78.6628,-0.0013336,-0.00021457,0.0,0 STARLINK-3342,1 50816U 22001P   22151.91667824 -.00021457  00000-0 -13336-2 0  9998,2 50816  53.2155 234.1926 0002152  41.8142  78.6628 15.08850618  1303,6917.848000000001,95.437,541.202,538.224,0.0
50816.0,STARLINK-3342,PAYLOAD,2022-06-01 20:00:01,15.08881189,0.0002244,53.2154,230.0779,40.1557,22.2229,-0.003337,-0.00053067,0.0,0 STARLINK-3342,1 50816U 22001P   22152.83334491 -.00053067  00000-0 -33370-2 0  9993,2 50816  53.2154 230.0779 0002244  40.1557  22.2229 15.08881189 23827,6917.754,95.435,541.172,538.067,0.0
50816.0,STARLINK-3342,PAYLOAD,2022-06-02 16:23:30,15.0885164,0.0002171,53.217,226.2623,45.3795,314.7374,0.00020487,2.975e-05,0.0,0 STARLINK-3342,1 50816U 22001P   22153.68299213  .00002975  00000-0  20487-3 0  9995,2 50816  53.2170 226.2623 0002171  45.3795 314.7374 15.08851640 23953,6917.845,95.437,541.212,538.2080000000002,0.0
50816.0,STARLINK-3342,PAYLOAD,2022-06-03 09:52:45,15.08847044,0.0002273,53.2166,222.9906,49.594,310.525,2.9621e-05,1.83e-06,0.0,0 STARLINK-3342,1 50816U 22001P   22154.41163558  .00000183  00000-0  29621-4 0  9998,2 50816  53.2166 222.9906 0002273  49.5940 310.5250 15.08847044 24069,6917.859,95.437,541.2959999999998,538.151,0.0
50816.0,STARLINK-3342,PAYLOAD,2022-06-03 14:38:55,15.08839524,0.0002249,53.2171,222.0998,46.2546,313.8632,-3.2899e-05,-8.12e-06,0.0,0 STARLINK-3342,1 50816U 22001P   22154.61036121 -.00000812  00000-0 -32899-4 0  9997,2 50816  53.2171 222.0998 0002249  46.2546 313.8632 15.08839524 24093,6917.882,95.438,541.303,538.191,0.0
50816.0,STARLINK-3342,PAYLOAD,2022-06-03 21:00:28,15.08835276,0.0002264,53.2165,220.91,46.872,313.2461,-8.8779e-05,-1.701e-05,0.0,0 STARLINK-3342,1 50816U 22001P   22154.87532507 -.00001701  00000-0 -88779-4 0  9990,2 50816  53.2165 220.9100 0002264  46.8720 313.2461 15.08835276 22851,6917.895,95.438,541.326,538.194,0.0
50816.0,STARLINK-3342,PAYLOAD,2022-06-04 11:18:55,15.08840155,0.0002216,53.2168,218.2333,43.1975,316.9191,-7.766899999999999e-05,-1.524e-05,0.0,0 STARLINK-3342,1 50816U 22001P   22155.47148058 -.00001524  00000-0 -77669-4 0  9990,2 50816  53.2168 218.2333 0002216  43.1975 316.9191 15.08840155 22943,6917.88,95.438,541.278,538.212,0.0
50816.0,STARLINK-3342,PAYLOAD,2022-06-05 22:00:00,15.08839821,0.0002059,53.215,211.7464,42.6087,251.8569,0.00021202,3.088e-05,0.0,0 STARLINK-3342,1 50816U 22001P   22156.91667824  .00003088  00000-0  21202-3 0  9993,2 50816  53.2150 211.7464 0002059  42.6087 251.8569 15.08839821 24441,6917.880999999999,95.438,541.17,538.322,0.0
50816.0,STARLINK-3342,PAYLOAD,2022-06-06 14:00:01,15.08826841,0.0002265,53.2147,208.7553,40.5103,277.1627,0.0026296,0.00041796,0.0,0 STARLINK-3342,1 50816U 22001P   22157.58334491  .00041796  00000-0  26296-2 0  9993,2 50816  53.2147 208.7553 0002265  40.5103 277.1627 15.08826841  1301,6917.920999999999,95.438,541.3530000000002,538.219,0.0
50816.0,STARLINK-3342,PAYLOAD,2022-06-06 20:32:48,15.08845057,0.0002221,53.2166,207.5288,43.58600000000001,316.5308,0.00011253,1.503e-05,0.0,0 STARLINK-3342,1 50816U 22001P   22157.85611285  .00001503  00000-0  11253-3 0  9992,2 50816  53.2166 207.5288 0002221  43.5860 316.5308 15.08845057 23307,6917.865,95.437,541.266,538.193,0.0
50816.0,STARLINK-3342,PAYLOAD,2022-06-07 02:54:20,15.0884804,0.0002224,53.2166,206.3392,43.9617,316.1552,0.00010487,1.381e-05,0.0,0 STARLINK-3342,1 50816U 22001P   22158.12107021  .00001381  00000-0  10487-3 0  9993,2 50816  53.2166 206.3392 0002224  43.9617 316.1552 15.08848040 24625,6917.856,95.437,541.259,538.182,0.0
50816.0,STARLINK-3342,PAYLOAD,2022-06-07 10:51:16,15.08845791,0.0001719,53.2156,204.8527,52.9446,307.1703,4.607100000000001e-05,4.45e-06,0.0,0 STARLINK-3342,1 50816U 22001P   22158.45227047  .00000445  00000-0  46071-4 0  9999,2 50816  53.2156 204.8527 0001719  52.9446 307.1703 15.08845791 23396,6917.863,95.437,540.9169999999998,538.539,0.0
50816.0,STARLINK-3342,PAYLOAD,2022-06-08 10:42:03,15.08844285,0.0002143,53.2156,200.3926,41.5422,318.5732,-1.4182e-05,-5.14e-06,0.0,0 STARLINK-3342,1 50816U 22001P   22159.44587243 -.00000514  00000-0 -14182-4 0  9993,2 50816  53.2156 200.3926 0002143  41.5422 318.5732 15.08844285 24824,6917.8669999999975,95.437,541.215,538.25,0.0
50816.0,STARLINK-3342,PAYLOAD,2022-06-08 20:14:21,15.08846248,0.0002175,53.2153,198.6086,41.7271,318.3886,3.5321e-06,-2.32e-06,0.0,0 STARLINK-3342,1 50816U 22001P   22159.84330907 -.00000232  00000-0  35321-5 0  9995,2 50816  53.2153 198.6086 0002175  41.7271 318.3886 15.08846248 23600,6917.861,95.437,541.231,538.222,0.0
50816.0,STARLINK-3342,PAYLOAD,2022-06-09 12:08:13,15.0884654,0.000228,53.2167,195.6345,42.7933,317.3237,-2.3391e-05,-6.61e-06,0.0,0 STARLINK-3342,1 50816U 22001P   22160.50570757 -.00000661  00000-0 -23391-4 0  9999,2 50816  53.2167 195.6345 0002280  42.7933 317.3237 15.08846540 23708,6917.86,95.437,541.303,538.148,0.0
50816.0,STARLINK-3342,PAYLOAD,2022-06-10 02:26:42,15.08833046,0.0002158,53.218,192.9578,44.1913,315.9251,-0.00011489,-2.116e-05,0.0,0 STARLINK-3342,1 50816U 22001P   22161.10188330 -.00002116  00000-0 -11489-3 0  9999,2 50816  53.2180 192.9578 0002158  44.1913 315.9251 15.08833046 25078,6917.901999999999,95.438,541.26,538.274,0.0
50816.0,STARLINK-3342,PAYLOAD,2022-06-10 08:48:15,15.08833205,0.0002243,53.2165,191.7685,43.3037,316.8131,-3.6533e-05,-8.7e-06,0.0,0 STARLINK-3342,1 50816U 22001P   22161.36684100 -.00000870  00000-0 -36533-4 0  9996,2 50816  53.2165 191.7685 0002243  43.3037 316.8131 15.08833205 23836,6917.901,95.438,541.318,538.214,0.0
50816.0,STARLINK-3342,PAYLOAD,2022-06-11 05:28:16,15.088335,0.0002207,53.2168,187.9036,41.8481,318.268,-1.4941e-05,-5.26e-06,0.0,0 STARLINK-3342,1 50816U 22001P   22162.22796397 -.00000526  00000-0 -14941-4 0  9991,2 50816  53.2168 187.9036 0002207  41.8481 318.2680 15.08833500 25242,6917.9,95.438,541.2919999999998,538.238,0.0
50816.0,STARLINK-3342,PAYLOAD,2022-06-11 11:49:48,15.08853268,0.0002198,53.2161,186.7134,43.9107,316.2059,-0.00023366,-4.007e-05,0.0,0 STARLINK-3342,1 50816U 22001P   22162.49291823 -.00004007  00000-0 -23366-3 0  9992,2 50816  53.2161 186.7134 0002198  43.9107 316.2059 15.08853268 25283,6917.84,95.437,541.225,538.184,0.0
50816.0,STARLINK-3342,PAYLOAD,2022-06-11 18:11:21,15.08830228,0.0002292,53.2161,185.524,43.4387,316.6785,8.526100000000001e-05,1.069e-05,0.0,0 STARLINK-3342,1 50816U 22001P   22162.75788565  .00001069  00000-0  85261-4 0  9991,2 50816  53.2161 185.5240 0002292  43.4387 316.6785 15.08830228 25324,6917.91,95.438,541.361,538.19,0.0
50816.0,STARLINK-3342,PAYLOAD,2022-06-12 11:40:35,15.08834965,0.0002323,53.2162,182.2531,44.4853,315.6326,8.459799999999999e-05,1.058e-05,0.0,0 STARLINK-3342,1 50816U 22001P   22163.48652675  .00001058  00000-0  84598-4 0  9994,2 50816  53.2162 182.2531 0002323  44.4853 315.6326 15.08834965 24158,6917.896,95.438,541.368,538.154,0.0
